[{"OBJECT_NAME":"CYGFM05","OBJECT_ID":"2016-078A","EPOCH":"2026-03-09T18:21:08.670816","MEAN_MOTION":15.52187266,"ECCENTRICITY":0.00070889,"INCLINATION":34.9569,"RA_OF_ASC_NODE":196.7903,"ARG_OF_PERICENTER":287.0892,"MEAN_ANOMALY":72.9055,"EPHEMERIS_TYPE":0,"CLASSIFICATION_TYPE":"U","NORAD_CAT_ID":41884,"ELEMENT_SET_NO":999,"REV_AT_EPOCH":51327,"BSTAR":0.00043170969,"MEAN_MOTION_DOT":0.00027059,"MEAN_MOTION_DDOT":0},{"OBJECT_NAME":"STARLINK-1695","OBJECT_ID":"2020-062E","EPOCH":"2026-03-10T00:00:02.999808","MEAN_MOTION":15.54321965,"ECCENTRICITY":0.00056929,"INCLINATION":53.0499,"RA_OF_ASC_NODE":335.097,"ARG_OF_PERICENTER":127.3586,"MEAN_ANOMALY":314.4015,"EPHEMERIS_TYPE":0,"CLASSIFICATION_TYPE":"U","NORAD_CAT_ID":46329,"ELEMENT_SET_NO":999,"REV_AT_EPOCH":591,"BSTAR":0.0015936543,"MEAN_MOTION_DOT":0.00107125,"MEAN_MOTION_DDOT":0}]
